ONEWEB-0158             
1 48054U 21025N   26192.80986807  .00000076  00000+0  17332-3 0  9998
2 48054  87.8985 315.3196 0001864 103.4877 256.6460 13.13464534256865
ONEWEB-0157             
1 48055U 21025P   26192.83524369 -.00000222  00000+0 -64167-3 0  9996
2 48055  87.8979 315.3182 0002211  97.6047 262.5333 13.13472044256808
ONEWEB-0162             
1 48056U 21025Q   26192.81141711 -.00000039  00000+0 -14290-3 0  9999
2 48056  87.8989 315.3231 0002048 107.2978 252.8375 13.13468817256771
ONEWEB-0155             
1 48057U 21025R   26192.81833646 -.00000219  00000+0 -63360-3 0  9997
2 48057  87.8979 315.3193 0002044  95.7428 264.3934 13.13472848256919
ONEWEB-0149             
1 48058U 21025S   26192.84032853 -.00000204  00000+0 -59222-3 0  9998
2 48058  87.8982 315.3185 0001912  92.9829 267.1519 13.13470216256728
ONEWEB-0148             
1 48059U 21025T   26192.80308617  .00000228  00000+0  58980-3 0  9993
2 48059  87.8979 315.3315 0001991  93.0193 267.1164 13.13469185256845
ONEWEB-0160             
1 48060U 21025U   26192.82000559 -.00000233  00000+0 -67383-3 0  9996
2 48060  87.8982 315.3235 0001381 117.2437 242.8833 13.13468819256795
ONEWEB-0163             
1 48061U 21025V   26192.80477844  .00000215  00000+0  55429-3 0  9996
2 48061  87.8986 315.3230 0002196  99.3666 260.7712 13.13468553256918
ONEWEB-0159             
1 48062U 21025W   26192.79631591  .00000296  00000+0  77690-3 0  9999
2 48062  87.8987 315.3185 0002224  99.7860 260.3520 13.13469311256838
ONEWEB-0164             
1 48063U 21025X   26192.77769064  .00000117  00000+0  28658-3 0  9997
2 48063  87.8992 315.3295 0001913 103.4056 256.7286 13.13469808256818
ONEWEB-0167             
1 48064U 21025Y   26192.80563080  .00000333  00000+0  87787-3 0  9990
2 48064  87.8987 315.3283 0002300 115.2514 244.8854 13.13469938256803
ONEWEB-0166             
1 48065U 21025Z   26192.82847677 -.00000357  00000+0 -10135-2 0  9990
2 48065  87.8988 315.3004 0001993  97.4602 262.6754 13.13469306256886
ONEWEB-0151             
1 48066U 21025AA  26192.83016024 -.00000296  00000+0 -84429-3 0  9996
2 48066  87.8985 315.3150 0001934 103.5657 256.5687 13.13470002256826
ONEWEB-0170             
1 48067U 21025AB  26192.83862324 -.00000239  00000+0 -68959-3 0  9996
2 48067  87.8980 315.3152 0001756 115.3362 244.7949 13.13469587256781
ONEWEB-0168             
1 48068U 21025AC  26192.82339208 -.00000231  00000+0 -66733-3 0  9996
2 48068  87.8984 315.3192 0002037  99.2675 260.8684 13.13469075256798
ONEWEB-0173             
1 48069U 21025AD  26192.81493248 -.00000130  00000+0 -39218-3 0  9997
2 48069  87.8978 315.3214 0002315 100.9673 259.1717 13.13468635257031
ONEWEB-0171             
1 48070U 21025AE  26192.85217339  .00000124  00000+0  30453-3 0  9991
2 48070  87.8975 315.3210 0001964 101.2288 258.9062 13.13470254256850
ONEWEB-0172             
1 48071U 21025AF  26192.83185538 -.00000323  00000+0 -91825-3 0  9998
2 48071  87.8987 315.3169 0002061 102.7342 257.4018 13.13470486257744
ONEWEB-0174             
1 48072U 21025AG  26192.81324299 -.00000082  00000+0 -26021-3 0  9994
2 48072  87.8986 315.3195 0002003  94.7885 265.3472 13.13468434257068
ONEWEB-0175             
1 48073U 21025AH  26192.84370864 -.00000146  00000+0 -43491-3 0  9998
2 48073  87.8983 315.2986 0002044 108.7473 251.3878 13.13469977256727
ONEWEB-0177             
1 48074U 21025AJ  26192.85556261  .00000138  00000+0  34339-3 0  9997
2 48074  87.8982 315.3141 0002060  95.3656 264.7708 13.13471064256914
ONEWEB-0178             
1 48075U 21025AK  26192.79814931  .00000273  00000+0  71184-3 0  9991
2 48075  87.8973 315.3354 0002159 103.7249 256.4121 13.13470044256950
ONEWEB-0108             
1 48076U 21025AL  26192.83355086 -.00000301  00000+0 -85992-3 0  9994
2 48076  87.8987 315.3109 0001734  95.5282 264.6045 13.13469376256881
ONEWEB-0169             
1 48077U 21025AM  26192.86572202  .00000305  00000+0  79934-3 0  9990
2 48077  87.8979 315.3104 0001994  94.2011 265.9346 13.13469321255542
ONEWEB-0176             
1 48210U 21031A   26192.68891817 -.00000036  00000+0 -13105-3 0  9993
2 48210  87.8967 284.8176 0002156 101.4223 258.7149 13.14501965251532
ONEWEB-0184             
1 48211U 21031B   26192.81419420 -.00000104  00000+0 -31434-3 0  9996
2 48211  87.8976 284.7946 0002465 118.4801 241.6577 13.14502752251520
ONEWEB-0179             
1 48212U 21031C   26192.80358207  .00000191  00000+0  55757-4 0  9990
2 48212  87.8996 281.0478 0221386 176.4996 183.7812 14.25571598252556
ONEWEB-0180             
1 48213U 21031D   26192.74125217 -.00000123  00000+0 -36730-3 0  9993
2 48213  87.8979 284.8057 0002496  99.5822 260.5590 13.14503309251440
ONEWEB-0218             
1 48214U 21031E   26192.76345048 -.00000050  00000+0 -17048-3 0  9992
2 48214  87.8977 284.8011 0002800 112.5448 247.5978 13.14503442251609
ONEWEB-0209             
1 48215U 21031F   26192.75235609 -.00000172  00000+0 -49881-3 0  9998
2 48215  87.8968 284.8177 0002275  96.5306 263.6083 13.14503466251605
